1 57321U 23084B   24001.50000000  .00005000  00000-0  32000-3 0  9992
2 57321  29.7000 200.5000 0010000  62.0000 298.0000 15.06000000 50000
